PROGRESS-MS 32          
1 65586U 25204A   25342.21990231  .00011911  00000+0  22082-3 0  9995
2 65586  51.6305 164.8582 0003431 219.3069 140.7671 15.49412336   270
CYGNUS NG-23            
1 65616U 25208A   25342.21990231  .00011911  00000+0  22082-3 0  9993
2 65616  51.6305 164.8582 0003431 219.3069 140.7671 15.49412336   229
DRAGONFLY               
1 65729U 98067XH  25342.22194179  .00161054  00000+0  12867-2 0  9992
2 65729  51.6251 158.8660 0006407 248.8890 111.1422 15.70056695 12459
1998-067XK              
1 65731U 98067XK  25342.20096316  .00097949  00000+0  98567-3 0  9990
2 65731  51.6277 160.2401 0005442 217.3331 142.7286 15.64619204 12439
RSP-03                  
1 65732U 98067XL  25342.21368671  .00127550  00000+0  11529-2 0  9992
2 65732  51.6259 159.5673 0006191 221.7076 138.3449 15.67171171 12452
GHS-01                  
1 65733U 98067XM  25342.11770003  .00205689  00000+0  14759-2 0  9996
2 65733  51.6275 158.9257 0006917 247.5151 112.5115 15.72465570 12457
YOTSUBA-KULOVER         
1 65941U 98067XN  25341.52041533  .00083069  00000+0  10602-2 0  9999
2 65941  51.6280 166.1928 0001795 200.6390 159.4530 15.58552395  9042
BOTAN                   
1 65942U 98067XP  25341.79259944  .00131716  00000+0  14857-2 0  9995
2 65942  51.6278 164.2597 0003846 199.4813 160.6034 15.61568201  9090
E-KAGAKU-1              
1 65943U 98067XQ  25341.77684631  .00088516  00000+0  11280-2 0  9995
2 65943  51.6295 164.9078 0002958 173.7443 186.3587 15.58562644  9086
HRC MONOBLOCK CAMERA    
1 66052U 98067XR  25342.21365819  .00037990  00000+0  58766-3 0  9992
2 66052  51.6285 164.0670 0003941 165.5162 194.5942 15.53683472  8135
HTV-X1                  
1 66174U 25241A   25342.21990231  .00011911  00000+0  22082-3 0  9990
2 66174  51.6305 164.8582 0003431 219.3069 140.7671 15.49412336   511
SZ-21 MODULE            
1 66515U 25246C   25342.19237544  .00031205  00000+0  34735-3 0  9998
2 66515  41.4776  43.7798 0006235 235.1653 124.8601 15.62158409  3739
