CCSDS_OMM_VERS = 2.0
CREATION_DATE  = 
ORIGINATOR     = 

OBJECT_NAME    = PROGRESS-MS 32
OBJECT_ID      = 2025-204A
CENTER_NAME    = EARTH
REF_FRAME      = TEME
TIME_SYSTEM    = UTC
MEAN_ELEMENT_THEORY = SGP/SGP4

EPOCH          = 2025-12-08T05:16:39.559584
MEAN_MOTION    = 15.49412336
ECCENTRICITY   = .00034318
INCLINATION    = 51.6305
RA_OF_ASC_NODE = 164.8582
ARG_OF_PERICENTER = 219.3069
MEAN_ANOMALY   = 140.7671

EPHEMERIS_TYPE = 0
CLASSIFICATION_TYPE = U
NORAD_CAT_ID   = 65586
ELEMENT_SET_NO = 999
REV_AT_EPOCH   = 27
BSTAR          = .22082399E-3
MEAN_MOTION_DOT = .11911E-3
MEAN_MOTION_DDOT = 0

CCSDS_OMM_VERS = 2.0
CREATION_DATE  = 
ORIGINATOR     = 

OBJECT_NAME    = CYGNUS NG-23
OBJECT_ID      = 2025-208A
CENTER_NAME    = EARTH
REF_FRAME      = TEME
TIME_SYSTEM    = UTC
MEAN_ELEMENT_THEORY = SGP/SGP4

EPOCH          = 2025-12-08T05:16:39.559584
MEAN_MOTION    = 15.49412336
ECCENTRICITY   = .00034318
INCLINATION    = 51.6305
RA_OF_ASC_NODE = 164.8582
ARG_OF_PERICENTER = 219.3069
MEAN_ANOMALY   = 140.7671

EPHEMERIS_TYPE = 0
CLASSIFICATION_TYPE = U
NORAD_CAT_ID   = 65616
ELEMENT_SET_NO = 999
REV_AT_EPOCH   = 22
BSTAR          = .22082399E-3
MEAN_MOTION_DOT = .11911E-3
MEAN_MOTION_DDOT = 0

CCSDS_OMM_VERS = 2.0
CREATION_DATE  = 
ORIGINATOR     = 

OBJECT_NAME    = DRAGONFLY
OBJECT_ID      = 1998-067XH
CENTER_NAME    = EARTH
REF_FRAME      = TEME
TIME_SYSTEM    = UTC
MEAN_ELEMENT_THEORY = SGP/SGP4

EPOCH          = 2025-12-08T05:19:35.770656
MEAN_MOTION    = 15.70056695
ECCENTRICITY   = .00064071
INCLINATION    = 51.6251
RA_OF_ASC_NODE = 158.8660
ARG_OF_PERICENTER = 248.8890
MEAN_ANOMALY   = 111.1422

EPHEMERIS_TYPE = 0
CLASSIFICATION_TYPE = U
NORAD_CAT_ID   = 65729
ELEMENT_SET_NO = 999
REV_AT_EPOCH   = 1245
BSTAR          = .12867364E-2
MEAN_MOTION_DOT = .161054E-2
MEAN_MOTION_DDOT = 0

CCSDS_OMM_VERS = 2.0
CREATION_DATE  = 
ORIGINATOR     = 

OBJECT_NAME    = 1998-067XK
OBJECT_ID      = 1998-067XK
CENTER_NAME    = EARTH
REF_FRAME      = TEME
TIME_SYSTEM    = UTC
MEAN_ELEMENT_THEORY = SGP/SGP4

EPOCH          = 2025-12-08T04:49:23.217024
MEAN_MOTION    = 15.64619204
ECCENTRICITY   = .00054425
INCLINATION    = 51.6277
RA_OF_ASC_NODE = 160.2401
ARG_OF_PERICENTER = 217.3331
MEAN_ANOMALY   = 142.7286

EPHEMERIS_TYPE = 0
CLASSIFICATION_TYPE = U
NORAD_CAT_ID   = 65731
ELEMENT_SET_NO = 999
REV_AT_EPOCH   = 1243
BSTAR          = .98566589E-3
MEAN_MOTION_DOT = .97949E-3
MEAN_MOTION_DDOT = 0

CCSDS_OMM_VERS = 2.0
CREATION_DATE  = 
ORIGINATOR     = 

OBJECT_NAME    = RSP-03
OBJECT_ID      = 1998-067XL
CENTER_NAME    = EARTH
REF_FRAME      = TEME
TIME_SYSTEM    = UTC
MEAN_ELEMENT_THEORY = SGP/SGP4

EPOCH          = 2025-12-08T05:07:42.531744
MEAN_MOTION    = 15.67171171
ECCENTRICITY   = .00061913
INCLINATION    = 51.6259
RA_OF_ASC_NODE = 159.5673
ARG_OF_PERICENTER = 221.7076
MEAN_ANOMALY   = 138.3449

EPHEMERIS_TYPE = 0
CLASSIFICATION_TYPE = U
NORAD_CAT_ID   = 65732
ELEMENT_SET_NO = 999
REV_AT_EPOCH   = 1245
BSTAR          = .11528972E-2
MEAN_MOTION_DOT = .12755E-2
MEAN_MOTION_DDOT = 0

CCSDS_OMM_VERS = 2.0
CREATION_DATE  = 
ORIGINATOR     = 

OBJECT_NAME    = GHS-01
OBJECT_ID      = 1998-067XM
CENTER_NAME    = EARTH
REF_FRAME      = TEME
TIME_SYSTEM    = UTC
MEAN_ELEMENT_THEORY = SGP/SGP4

EPOCH          = 2025-12-08T02:49:29.282592
MEAN_MOTION    = 15.72465570
ECCENTRICITY   = .0006917
INCLINATION    = 51.6275
RA_OF_ASC_NODE = 158.9257
ARG_OF_PERICENTER = 247.5151
MEAN_ANOMALY   = 112.5115

EPHEMERIS_TYPE = 0
CLASSIFICATION_TYPE = U
NORAD_CAT_ID   = 65733
ELEMENT_SET_NO = 999
REV_AT_EPOCH   = 1245
BSTAR          = .14759083E-2
MEAN_MOTION_DOT = .205689E-2
MEAN_MOTION_DDOT = 0

CCSDS_OMM_VERS = 2.0
CREATION_DATE  = 
ORIGINATOR     = 

OBJECT_NAME    = YOTSUBA-KULOVER
OBJECT_ID      = 1998-067XN
CENTER_NAME    = EARTH
REF_FRAME      = TEME
TIME_SYSTEM    = UTC
MEAN_ELEMENT_THEORY = SGP/SGP4

EPOCH          = 2025-12-07T12:29:23.884512
MEAN_MOTION    = 15.58552395
ECCENTRICITY   = .00017957
INCLINATION    = 51.6280
RA_OF_ASC_NODE = 166.1928
ARG_OF_PERICENTER = 200.6390
MEAN_ANOMALY   = 159.4530

EPHEMERIS_TYPE = 0
CLASSIFICATION_TYPE = U
NORAD_CAT_ID   = 65941
ELEMENT_SET_NO = 999
REV_AT_EPOCH   = 904
BSTAR          = .10602119E-2
MEAN_MOTION_DOT = .83069E-3
MEAN_MOTION_DDOT = 0

CCSDS_OMM_VERS = 2.0
CREATION_DATE  = 
ORIGINATOR     = 

OBJECT_NAME    = BOTAN
OBJECT_ID      = 1998-067XP
CENTER_NAME    = EARTH
REF_FRAME      = TEME
TIME_SYSTEM    = UTC
MEAN_ELEMENT_THEORY = SGP/SGP4

EPOCH          = 2025-12-07T19:01:20.591616
MEAN_MOTION    = 15.61568201
ECCENTRICITY   = .00038466
INCLINATION    = 51.6278
RA_OF_ASC_NODE = 164.2597
ARG_OF_PERICENTER = 199.4813
MEAN_ANOMALY   = 160.6034

EPHEMERIS_TYPE = 0
CLASSIFICATION_TYPE = U
NORAD_CAT_ID   = 65942
ELEMENT_SET_NO = 999
REV_AT_EPOCH   = 909
BSTAR          = .14856756E-2
MEAN_MOTION_DOT = .131716E-2
MEAN_MOTION_DDOT = 0

CCSDS_OMM_VERS = 2.0
CREATION_DATE  = 
ORIGINATOR     = 

OBJECT_NAME    = E-KAGAKU-1
OBJECT_ID      = 1998-067XQ
CENTER_NAME    = EARTH
REF_FRAME      = TEME
TIME_SYSTEM    = UTC
MEAN_ELEMENT_THEORY = SGP/SGP4

EPOCH          = 2025-12-07T18:38:39.521184
MEAN_MOTION    = 15.58562644
ECCENTRICITY   = .00029586
INCLINATION    = 51.6295
RA_OF_ASC_NODE = 164.9078
ARG_OF_PERICENTER = 173.7443
MEAN_ANOMALY   = 186.3587

EPHEMERIS_TYPE = 0
CLASSIFICATION_TYPE = U
NORAD_CAT_ID   = 65943
ELEMENT_SET_NO = 999
REV_AT_EPOCH   = 908
BSTAR          = .11280115E-2
MEAN_MOTION_DOT = .88516E-3
MEAN_MOTION_DDOT = 0

CCSDS_OMM_VERS = 2.0
CREATION_DATE  = 
ORIGINATOR     = 

OBJECT_NAME    = HRC MONOBLOCK CAMERA
OBJECT_ID      = 1998-067XR
CENTER_NAME    = EARTH
REF_FRAME      = TEME
TIME_SYSTEM    = UTC
MEAN_ELEMENT_THEORY = SGP/SGP4

EPOCH          = 2025-12-08T05:07:40.067616
MEAN_MOTION    = 15.53683472
ECCENTRICITY   = .00039412
INCLINATION    = 51.6285
RA_OF_ASC_NODE = 164.0670
ARG_OF_PERICENTER = 165.5162
MEAN_ANOMALY   = 194.5942

EPHEMERIS_TYPE = 0
CLASSIFICATION_TYPE = U
NORAD_CAT_ID   = 66052
ELEMENT_SET_NO = 999
REV_AT_EPOCH   = 813
BSTAR          = .58766286E-3
MEAN_MOTION_DOT = .3799E-3
MEAN_MOTION_DDOT = 0

CCSDS_OMM_VERS = 2.0
CREATION_DATE  = 
ORIGINATOR     = 

OBJECT_NAME    = HTV-X1
OBJECT_ID      = 2025-241A
CENTER_NAME    = EARTH
REF_FRAME      = TEME
TIME_SYSTEM    = UTC
MEAN_ELEMENT_THEORY = SGP/SGP4

EPOCH          = 2025-12-08T05:16:39.559584
MEAN_MOTION    = 15.49412336
ECCENTRICITY   = .00034318
INCLINATION    = 51.6305
RA_OF_ASC_NODE = 164.8582
ARG_OF_PERICENTER = 219.3069
MEAN_ANOMALY   = 140.7671

EPHEMERIS_TYPE = 0
CLASSIFICATION_TYPE = U
NORAD_CAT_ID   = 66174
ELEMENT_SET_NO = 999
REV_AT_EPOCH   = 51
BSTAR          = .22082399E-3
MEAN_MOTION_DOT = .11911E-3
MEAN_MOTION_DDOT = 0

CCSDS_OMM_VERS = 2.0
CREATION_DATE  = 
ORIGINATOR     = 

OBJECT_NAME    = SZ-21 MODULE
OBJECT_ID      = 2025-246C
CENTER_NAME    = EARTH
REF_FRAME      = TEME
TIME_SYSTEM    = UTC
MEAN_ELEMENT_THEORY = SGP/SGP4

EPOCH          = 2025-12-08T04:37:01.238016
MEAN_MOTION    = 15.62158409
ECCENTRICITY   = .00062352
INCLINATION    = 41.4776
RA_OF_ASC_NODE = 43.7798
ARG_OF_PERICENTER = 235.1653
MEAN_ANOMALY   = 124.8601

EPHEMERIS_TYPE = 0
CLASSIFICATION_TYPE = U
NORAD_CAT_ID   = 66515
ELEMENT_SET_NO = 999
REV_AT_EPOCH   = 373
BSTAR          = .34735196E-3
MEAN_MOTION_DOT = .31205E-3
MEAN_MOTION_DDOT = 0

